{
  "type": "FeatureCollection",
  "features": [
    {
      "type": "Feature",
      "properties": {
        "norad_id": 51444,
        "name": "CSG-2",
        "group": "resource",
        "lat": 47.004100519589244,
        "lon": -5.481856859410525,
        "alt_km": 617.702174627424,
        "timestamp": "2025-12-10T14:53:36.780385+00:00",
        "meta_object_name": "CSG-2",
        "meta_object_id": "2022-008A",
        "meta_epoch": "2025-12-10T07:49:03.550656",
        "meta_mean_motion": 14.82157972,
        "meta_eccentricity": 0.00014894,
        "meta_inclination": 97.8805,
        "meta_ra_of_asc_node": 165.6848,
        "meta_arg_of_pericenter": 84.7901,
        "meta_mean_anomaly": 275.3482,
        "meta_ephemeris_type": 0,
        "meta_classification_type": "U",
        "meta_norad_cat_id": 51444,
        "meta_element_set_no": 999,
        "meta_rev_at_epoch": 20861,
        "meta_bstar": 6.3242123e-05,
        "meta_mean_motion_dot": 4.51e-06,
        "meta_mean_motion_ddot": 0,
        "tle_line1": "1 51444U 22008A   25344.32573554  .00000451  00000+0  63242-4 0  9992",
        "tle_line2": "2 51444  97.8805 165.6848 0001489  84.7901 275.3482 14.82157972208610"
      },
      "geometry": {
        "type": "Point",
        "coordinates": [
          -5.481856859410525,
          47.004100519589244
        ]
      }
    },
    {
      "type": "Feature",
      "properties": {
        "norad_id": 52912,
        "name": "GAOFEN-12 03",
        "group": "resource",
        "lat": 66.99609122702725,
        "lon": -146.94015024625668,
        "alt_km": 622.461757720007,
        "timestamp": "2025-12-10T14:53:36.780394+00:00",
        "meta_object_name": "GAOFEN-12 03",
        "meta_object_id": "2022-069A",
        "meta_epoch": "2025-12-10T06:28:14.945952",
        "meta_mean_motion": 14.79600212,
        "meta_eccentricity": 0.00022883,
        "meta_inclination": 97.848,
        "meta_ra_of_asc_node": 231.6754,
        "meta_arg_of_pericenter": 64.751,
        "meta_mean_anomaly": 295.3939,
        "meta_ephemeris_type": 0,
        "meta_classification_type": "U",
        "meta_norad_cat_id": 52912,
        "meta_element_set_no": 999,
        "meta_rev_at_epoch": 18667,
        "meta_bstar": 0.0002520129,
        "meta_mean_motion_dot": 1.838e-05,
        "meta_mean_motion_ddot": 0,
        "tle_line1": "1 52912U 22069A   25344.26961743  .00001838  00000+0  25201-3 0  9996",
        "tle_line2": "2 52912  97.8480 231.6754 0002288  64.7510 295.3939 14.79600212186678"
      },
      "geometry": {
        "type": "Point",
        "coordinates": [
          -146.94015024625668,
          66.99609122702725
        ]
      }
    },
    {
      "type": "Feature",
      "properties": {
        "norad_id": 54754,
        "name": "SWOT",
        "group": "resource",
        "lat": -68.14539426414841,
        "lon": -103.38261859855457,
        "alt_km": 900.516390779253,
        "timestamp": "2025-12-10T14:53:36.780403+00:00",
        "meta_object_name": "SWOT",
        "meta_object_id": "2022-173A",
        "meta_epoch": "2025-12-10T06:39:42.292512",
        "meta_mean_motion": 14.0017414,
        "meta_eccentricity": 3.305e-05,
        "meta_inclination": 77.6105,
        "meta_ra_of_asc_node": 290.3134,
        "meta_arg_of_pericenter": 120.086,
        "meta_mean_anomaly": 240.0325,
        "meta_ephemeris_type": 0,
        "meta_classification_type": "U",
        "meta_norad_cat_id": 54754,
        "meta_element_set_no": 999,
        "meta_rev_at_epoch": 15271,
        "meta_bstar": 5.1195188e-05,
        "meta_mean_motion_dot": 7.3e-07,
        "meta_mean_motion_ddot": 0,
        "tle_line1": "1 54754U 22173A   25344.27757283  .00000073  00000+0  51195-4 0  9993",
        "tle_line2": "2 54754  77.6105 290.3134 0000330 120.0860 240.0325 14.00174140152712"
      },
      "geometry": {
        "type": "Point",
        "coordinates": [
          -103.38261859855457,
          -68.14539426414841
        ]
      }
    },
    {
      "type": "Feature",
      "properties": {
        "norad_id": 57654,
        "name": "GAOFEN-12 04",
        "group": "resource",
        "lat": -56.47568252876946,
        "lon": 68.29291804160704,
        "alt_km": 638.3049593334126,
        "timestamp": "2025-12-10T14:53:36.780412+00:00",
        "meta_object_name": "GAOFEN-12 04",
        "meta_object_id": "2023-123A",
        "meta_epoch": "2025-12-10T07:19:58.204128",
        "meta_mean_motion": 14.79689071,
        "meta_eccentricity": 0.00013666,
        "meta_inclination": 97.9117,
        "meta_ra_of_asc_node": 260.0997,
        "meta_arg_of_pericenter": 73.539,
        "meta_mean_anomaly": 286.5972,
        "meta_ephemeris_type": 0,
        "meta_classification_type": "U",
        "meta_norad_cat_id": 57654,
        "meta_element_set_no": 999,
        "meta_rev_at_epoch": 12469,
        "meta_bstar": 0.00031036243,
        "meta_mean_motion_dot": 2.279e-05,
        "meta_mean_motion_ddot": 0,
        "tle_line1": "1 57654U 23123A   25344.30553477  .00002279  00000+0  31036-3 0  9995",
        "tle_line2": "2 57654  97.9117 260.0997 0001366  73.5390 286.5972 14.79689071124692"
      },
      "geometry": {
        "type": "Point",
        "coordinates": [
          68.29291804160704,
          -56.47568252876946
        ]
      }
    },
    {
      "type": "Feature",
      "properties": {
        "norad_id": 59065,
        "name": "PARS 1",
        "group": "resource",
        "lat": 12.213030035306014,
        "lon": 137.13475920793147,
        "alt_km": 444.7090862487448,
        "timestamp": "2025-12-10T14:53:36.780422+00:00",
        "meta_object_name": "PARS 1",
        "meta_object_id": "2024-039Q",
        "meta_epoch": "2025-12-10T06:22:37.706016",
        "meta_mean_motion": 15.40885048,
        "meta_eccentricity": 0.00126525,
        "meta_inclination": 97.4638,
        "meta_ra_of_asc_node": 315.1463,
        "meta_arg_of_pericenter": 79.7167,
        "meta_mean_anomaly": 280.5505,
        "meta_ephemeris_type": 0,
        "meta_classification_type": "U",
        "meta_norad_cat_id": 59065,
        "meta_element_set_no": 999,
        "meta_rev_at_epoch": 9950,
        "meta_bstar": 0.00039941573,
        "meta_mean_motion_dot": 0.0001638,
        "meta_mean_motion_ddot": 0,
        "tle_line1": "1 59065U 24039Q   25344.26571419  .00016380  00000+0  39942-3 0  9993",
        "tle_line2": "2 59065  97.4638 315.1463 0012652  79.7167 280.5505 15.40885048 99501"
      },
      "geometry": {
        "type": "Point",
        "coordinates": [
          137.13475920793147,
          12.213030035306014
        ]
      }
    },
    {
      "type": "Feature",
      "properties": {
        "norad_id": 59371,
        "name": "RESURS-P 4",
        "group": "resource",
        "lat": 16.794355146018884,
        "lon": -71.20931448022782,
        "alt_km": 469.39544827940426,
        "timestamp": "2025-12-10T14:53:36.780431+00:00",
        "meta_object_name": "RESURS-P 4",
        "meta_object_id": "2024-061A",
        "meta_epoch": "2025-12-10T06:58:55.868160",
        "meta_mean_motion": 15.32054662,
        "meta_eccentricity": 0.00017039,
        "meta_inclination": 97.2543,
        "meta_ra_of_asc_node": 290.6711,
        "meta_arg_of_pericenter": 53.131,
        "meta_mean_anomaly": 307.0088,
        "meta_ephemeris_type": 0,
        "meta_classification_type": "U",
        "meta_norad_cat_id": 59371,
        "meta_element_set_no": 999,
        "meta_rev_at_epoch": 9483,
        "meta_bstar": 0.0001935274,
        "meta_mean_motion_dot": 5.913e-05,
        "meta_mean_motion_ddot": 0,
        "tle_line1": "1 59371U 24061A   25344.29092440  .00005913  00000+0  19353-3 0  9997",
        "tle_line2": "2 59371  97.2543 290.6711 0001703  53.1310 307.0088 15.32054662 94831"
      },
      "geometry": {
        "type": "Point",
        "coordinates": [
          -71.20931448022782,
          16.794355146018884
        ]
      }
    },
    {
      "type": "Feature",
      "properties": {
        "norad_id": 59625,
        "name": "LEGION 1",
        "group": "resource",
        "lat": 0.8282665169257761,
        "lon": 59.167301055120234,
        "alt_km": 517.1718050644658,
        "timestamp": "2025-12-10T14:53:36.780440+00:00",
        "meta_object_name": "LEGION 1",
        "meta_object_id": "2024-081A",
        "meta_epoch": "2025-12-10T05:23:16.589184",
        "meta_mean_motion": 15.16439777,
        "meta_eccentricity": 0.00041755,
        "meta_inclination": 97.521,
        "meta_ra_of_asc_node": 58.8841,
        "meta_arg_of_pericenter": 328.5507,
        "meta_mean_anomaly": 31.5476,
        "meta_ephemeris_type": 0,
        "meta_classification_type": "U",
        "meta_norad_cat_id": 59625,
        "meta_element_set_no": 999,
        "meta_rev_at_epoch": 8889,
        "meta_bstar": 0.00040597008,
        "meta_mean_motion_dot": 7.832e-05,
        "meta_mean_motion_ddot": 0,
        "tle_line1": "1 59625U 24081A   25344.22449756  .00007832  00000+0  40597-3 0  9996",
        "tle_line2": "2 59625  97.5210  58.8841 0004175 328.5507  31.5476 15.16439777 88893"
      },
      "geometry": {
        "type": "Point",
        "coordinates": [
          59.167301055120234,
          0.8282665169257761
        ]
      }
    }
  ]
}